{
  "type": "FeatureCollection",
  "name": "教学区建筑白模（示例资源）",
  "features": [
    {
      "type": "Feature",
      "id": "gd-north-building-01",
      "properties": {
        "name": "教学楼 01",
        "height": 12,
        "category": "BUILDING",
        "source": "DEMO_TEACHING_DATA"
      },
      "geometry": {
        "type": "Polygon",
        "coordinates": [
          [
            [
              113.28982857142857,
              23.07096
            ],
            [
              113.29445714285715,
              23.07096
            ],
            [
              113.29445714285715,
              23.077440000000003
            ],
            [
              113.28982857142857,
              23.077440000000003
            ],
            [
              113.28982857142857,
              23.07096
            ]
          ]
        ]
      }
    },
    {
      "type": "Feature",
      "id": "gd-north-building-02",
      "properties": {
        "name": "教学楼 02",
        "height": 17,
        "category": "BUILDING",
        "source": "DEMO_TEACHING_DATA"
      },
      "geometry": {
        "type": "Polygon",
        "coordinates": [
          [
            [
              113.29445714285715,
              23.070528
            ],
            [
              113.30011428571429,
              23.070528
            ],
            [
              113.30011428571429,
              23.077872000000003
            ],
            [
              113.29445714285715,
              23.077872000000003
            ],
            [
              113.29445714285715,
              23.070528
            ]
          ]
        ]
      }
    },
    {
      "type": "Feature",
      "id": "gd-north-building-03",
      "properties": {
        "name": "教学楼 03",
        "height": 22,
        "category": "BUILDING",
        "source": "DEMO_TEACHING_DATA"
      },
      "geometry": {
        "type": "Polygon",
        "coordinates": [
          [
            [
              113.30011428571429,
              23.070096
            ],
            [
              113.30474285714287,
              23.070096
            ],
            [
              113.30474285714287,
              23.078304000000003
            ],
            [
              113.30011428571429,
              23.078304000000003
            ],
            [
              113.30011428571429,
              23.070096
            ]
          ]
        ]
      }
    },
    {
      "type": "Feature",
      "id": "gd-north-building-04",
      "properties": {
        "name": "教学楼 04",
        "height": 27,
        "category": "BUILDING",
        "source": "DEMO_TEACHING_DATA"
      },
      "geometry": {
        "type": "Polygon",
        "coordinates": [
          [
            [
              113.30474285714286,
              23.07096
            ],
            [
              113.31039999999999,
              23.07096
            ],
            [
              113.31039999999999,
              23.077440000000003
            ],
            [
              113.30474285714286,
              23.077440000000003
            ],
            [
              113.30474285714286,
              23.07096
            ]
          ]
        ]
      }
    },
    {
      "type": "Feature",
      "id": "gd-north-building-05",
      "properties": {
        "name": "教学楼 05",
        "height": 32,
        "category": "BUILDING",
        "source": "DEMO_TEACHING_DATA"
      },
      "geometry": {
        "type": "Polygon",
        "coordinates": [
          [
            [
              113.31039999999999,
              23.070528
            ],
            [
              113.31502857142857,
              23.070528
            ],
            [
              113.31502857142857,
              23.077872000000003
            ],
            [
              113.31039999999999,
              23.077872000000003
            ],
            [
              113.31039999999999,
              23.070528
            ]
          ]
        ]
      }
    },
    {
      "type": "Feature",
      "id": "gd-north-building-06",
      "properties": {
        "name": "教学楼 06",
        "height": 37,
        "category": "BUILDING",
        "source": "DEMO_TEACHING_DATA"
      },
      "geometry": {
        "type": "Polygon",
        "coordinates": [
          [
            [
              113.31502857142857,
              23.070096
            ],
            [
              113.3206857142857,
              23.070096
            ],
            [
              113.3206857142857,
              23.078304000000003
            ],
            [
              113.31502857142857,
              23.078304000000003
            ],
            [
              113.31502857142857,
              23.070096
            ]
          ]
        ]
      }
    },
    {
      "type": "Feature",
      "id": "gd-north-building-07",
      "properties": {
        "name": "教学楼 07",
        "height": 19,
        "category": "BUILDING",
        "source": "DEMO_TEACHING_DATA"
      },
      "geometry": {
        "type": "Polygon",
        "coordinates": [
          [
            [
              113.2893142857143,
              23.077296
            ],
            [
              113.29497142857143,
              23.077296
            ],
            [
              113.29497142857143,
              23.085504000000004
            ],
            [
              113.2893142857143,
              23.085504000000004
            ],
            [
              113.2893142857143,
              23.077296
            ]
          ]
        ]
      }
    },
    {
      "type": "Feature",
      "id": "gd-north-building-08",
      "properties": {
        "name": "教学楼 08",
        "height": 24,
        "category": "BUILDING",
        "source": "DEMO_TEACHING_DATA"
      },
      "geometry": {
        "type": "Polygon",
        "coordinates": [
          [
            [
              113.29497142857143,
              23.07816
            ],
            [
              113.29960000000001,
              23.07816
            ],
            [
              113.29960000000001,
              23.084640000000004
            ],
            [
              113.29497142857143,
              23.084640000000004
            ],
            [
              113.29497142857143,
              23.07816
            ]
          ]
        ]
      }
    },
    {
      "type": "Feature",
      "id": "gd-north-building-09",
      "properties": {
        "name": "教学楼 09",
        "height": 29,
        "category": "BUILDING",
        "source": "DEMO_TEACHING_DATA"
      },
      "geometry": {
        "type": "Polygon",
        "coordinates": [
          [
            [
              113.29960000000001,
              23.077728
            ],
            [
              113.30525714285714,
              23.077728
            ],
            [
              113.30525714285714,
              23.085072000000004
            ],
            [
              113.29960000000001,
              23.085072000000004
            ],
            [
              113.29960000000001,
              23.077728
            ]
          ]
        ]
      }
    },
    {
      "type": "Feature",
      "id": "gd-north-building-10",
      "properties": {
        "name": "教学楼 10",
        "height": 34,
        "category": "BUILDING",
        "source": "DEMO_TEACHING_DATA"
      },
      "geometry": {
        "type": "Polygon",
        "coordinates": [
          [
            [
              113.30525714285713,
              23.077296
            ],
            [
              113.30988571428571,
              23.077296
            ],
            [
              113.30988571428571,
              23.085504000000004
            ],
            [
              113.30525714285713,
              23.085504000000004
            ],
            [
              113.30525714285713,
              23.077296
            ]
          ]
        ]
      }
    },
    {
      "type": "Feature",
      "id": "gd-north-building-11",
      "properties": {
        "name": "教学楼 11",
        "height": 39,
        "category": "BUILDING",
        "source": "DEMO_TEACHING_DATA"
      },
      "geometry": {
        "type": "Polygon",
        "coordinates": [
          [
            [
              113.30988571428571,
              23.07816
            ],
            [
              113.31554285714284,
              23.07816
            ],
            [
              113.31554285714284,
              23.084640000000004
            ],
            [
              113.30988571428571,
              23.084640000000004
            ],
            [
              113.30988571428571,
              23.07816
            ]
          ]
        ]
      }
    },
    {
      "type": "Feature",
      "id": "gd-north-building-12",
      "properties": {
        "name": "教学楼 12",
        "height": 16,
        "category": "BUILDING",
        "source": "DEMO_TEACHING_DATA"
      },
      "geometry": {
        "type": "Polygon",
        "coordinates": [
          [
            [
              113.31554285714284,
              23.077728
            ],
            [
              113.32017142857143,
              23.077728
            ],
            [
              113.32017142857143,
              23.085072000000004
            ],
            [
              113.31554285714284,
              23.085072000000004
            ],
            [
              113.31554285714284,
              23.077728
            ]
          ]
        ]
      }
    },
    {
      "type": "Feature",
      "id": "gd-north-building-13",
      "properties": {
        "name": "教学楼 13",
        "height": 26,
        "category": "BUILDING",
        "source": "DEMO_TEACHING_DATA"
      },
      "geometry": {
        "type": "Polygon",
        "coordinates": [
          [
            [
              113.28982857142857,
              23.084927999999998
            ],
            [
              113.29445714285715,
              23.084927999999998
            ],
            [
              113.29445714285715,
              23.092272
            ],
            [
              113.28982857142857,
              23.092272
            ],
            [
              113.28982857142857,
              23.084927999999998
            ]
          ]
        ]
      }
    },
    {
      "type": "Feature",
      "id": "gd-north-building-14",
      "properties": {
        "name": "教学楼 14",
        "height": 31,
        "category": "BUILDING",
        "source": "DEMO_TEACHING_DATA"
      },
      "geometry": {
        "type": "Polygon",
        "coordinates": [
          [
            [
              113.29445714285715,
              23.084495999999998
            ],
            [
              113.30011428571429,
              23.084495999999998
            ],
            [
              113.30011428571429,
              23.092704
            ],
            [
              113.29445714285715,
              23.092704
            ],
            [
              113.29445714285715,
              23.084495999999998
            ]
          ]
        ]
      }
    },
    {
      "type": "Feature",
      "id": "gd-north-building-15",
      "properties": {
        "name": "教学楼 15",
        "height": 36,
        "category": "BUILDING",
        "source": "DEMO_TEACHING_DATA"
      },
      "geometry": {
        "type": "Polygon",
        "coordinates": [
          [
            [
              113.30011428571429,
              23.085359999999998
            ],
            [
              113.30474285714287,
              23.085359999999998
            ],
            [
              113.30474285714287,
              23.09184
            ],
            [
              113.30011428571429,
              23.09184
            ],
            [
              113.30011428571429,
              23.085359999999998
            ]
          ]
        ]
      }
    },
    {
      "type": "Feature",
      "id": "gd-north-building-16",
      "properties": {
        "name": "教学楼 16",
        "height": 13,
        "category": "BUILDING",
        "source": "DEMO_TEACHING_DATA"
      },
      "geometry": {
        "type": "Polygon",
        "coordinates": [
          [
            [
              113.30474285714286,
              23.084927999999998
            ],
            [
              113.31039999999999,
              23.084927999999998
            ],
            [
              113.31039999999999,
              23.092272
            ],
            [
              113.30474285714286,
              23.092272
            ],
            [
              113.30474285714286,
              23.084927999999998
            ]
          ]
        ]
      }
    },
    {
      "type": "Feature",
      "id": "gd-north-building-17",
      "properties": {
        "name": "教学楼 17",
        "height": 18,
        "category": "BUILDING",
        "source": "DEMO_TEACHING_DATA"
      },
      "geometry": {
        "type": "Polygon",
        "coordinates": [
          [
            [
              113.31039999999999,
              23.084495999999998
            ],
            [
              113.31502857142857,
              23.084495999999998
            ],
            [
              113.31502857142857,
              23.092704
            ],
            [
              113.31039999999999,
              23.092704
            ],
            [
              113.31039999999999,
              23.084495999999998
            ]
          ]
        ]
      }
    },
    {
      "type": "Feature",
      "id": "gd-north-building-18",
      "properties": {
        "name": "教学楼 18",
        "height": 23,
        "category": "BUILDING",
        "source": "DEMO_TEACHING_DATA"
      },
      "geometry": {
        "type": "Polygon",
        "coordinates": [
          [
            [
              113.31502857142857,
              23.085359999999998
            ],
            [
              113.3206857142857,
              23.085359999999998
            ],
            [
              113.3206857142857,
              23.09184
            ],
            [
              113.31502857142857,
              23.09184
            ],
            [
              113.31502857142857,
              23.085359999999998
            ]
          ]
        ]
      }
    },
    {
      "type": "Feature",
      "id": "gd-north-building-19",
      "properties": {
        "name": "教学楼 19",
        "height": 33,
        "category": "BUILDING",
        "source": "DEMO_TEACHING_DATA"
      },
      "geometry": {
        "type": "Polygon",
        "coordinates": [
          [
            [
              113.2893142857143,
              23.09256
            ],
            [
              113.29497142857143,
              23.09256
            ],
            [
              113.29497142857143,
              23.099040000000002
            ],
            [
              113.2893142857143,
              23.099040000000002
            ],
            [
              113.2893142857143,
              23.09256
            ]
          ]
        ]
      }
    },
    {
      "type": "Feature",
      "id": "gd-north-building-20",
      "properties": {
        "name": "教学楼 20",
        "height": 38,
        "category": "BUILDING",
        "source": "DEMO_TEACHING_DATA"
      },
      "geometry": {
        "type": "Polygon",
        "coordinates": [
          [
            [
              113.29497142857143,
              23.092128
            ],
            [
              113.29960000000001,
              23.092128
            ],
            [
              113.29960000000001,
              23.099472000000002
            ],
            [
              113.29497142857143,
              23.099472000000002
            ],
            [
              113.29497142857143,
              23.092128
            ]
          ]
        ]
      }
    },
    {
      "type": "Feature",
      "id": "gd-north-building-21",
      "properties": {
        "name": "教学楼 21",
        "height": 15,
        "category": "BUILDING",
        "source": "DEMO_TEACHING_DATA"
      },
      "geometry": {
        "type": "Polygon",
        "coordinates": [
          [
            [
              113.29960000000001,
              23.091696
            ],
            [
              113.30525714285714,
              23.091696
            ],
            [
              113.30525714285714,
              23.099904000000002
            ],
            [
              113.29960000000001,
              23.099904000000002
            ],
            [
              113.29960000000001,
              23.091696
            ]
          ]
        ]
      }
    },
    {
      "type": "Feature",
      "id": "gd-north-building-22",
      "properties": {
        "name": "教学楼 22",
        "height": 20,
        "category": "BUILDING",
        "source": "DEMO_TEACHING_DATA"
      },
      "geometry": {
        "type": "Polygon",
        "coordinates": [
          [
            [
              113.30525714285713,
              23.09256
            ],
            [
              113.30988571428571,
              23.09256
            ],
            [
              113.30988571428571,
              23.099040000000002
            ],
            [
              113.30525714285713,
              23.099040000000002
            ],
            [
              113.30525714285713,
              23.09256
            ]
          ]
        ]
      }
    },
    {
      "type": "Feature",
      "id": "gd-north-building-23",
      "properties": {
        "name": "教学楼 23",
        "height": 25,
        "category": "BUILDING",
        "source": "DEMO_TEACHING_DATA"
      },
      "geometry": {
        "type": "Polygon",
        "coordinates": [
          [
            [
              113.30988571428571,
              23.092128
            ],
            [
              113.31554285714284,
              23.092128
            ],
            [
              113.31554285714284,
              23.099472000000002
            ],
            [
              113.30988571428571,
              23.099472000000002
            ],
            [
              113.30988571428571,
              23.092128
            ]
          ]
        ]
      }
    },
    {
      "type": "Feature",
      "id": "gd-north-building-24",
      "properties": {
        "name": "教学楼 24",
        "height": 30,
        "category": "BUILDING",
        "source": "DEMO_TEACHING_DATA"
      },
      "geometry": {
        "type": "Polygon",
        "coordinates": [
          [
            [
              113.31554285714284,
              23.091696
            ],
            [
              113.32017142857143,
              23.091696
            ],
            [
              113.32017142857143,
              23.099904000000002
            ],
            [
              113.31554285714284,
              23.099904000000002
            ],
            [
              113.31554285714284,
              23.091696
            ]
          ]
        ]
      }
    }
  ]
}
